[{"OBJECT_NAME":"ONEWEB-0645","OBJECT_ID":"2023-029P","EPOCH":"2025-11-11T03:16:01.793568","MEAN_MOTION":13.18131138,"ECCENTRICITY":0.00022702,"INCLINATION":87.9211,"RA_OF_ASC_NODE":348.3765,"ARG_OF_PERICENTER":106.0123,"MEAN_ANOMALY":254.1259,"EPHEMERIS_TYPE":0,"CLASSIFICATION_TYPE":"U","NORAD_CAT_ID":55809,"ELEMENT_SET_NO":999,"REV_AT_EPOCH":13014,"BSTAR":7.6576827e-5,"MEAN_MOTION_DOT":4.3e-7,"MEAN_MOTION_DDOT":0},{"OBJECT_NAME":"ONEWEB-0646","OBJECT_ID":"2023-029Q","EPOCH":"2025-11-11T03:50:00.794688","MEAN_MOTION":13.19723449,"ECCENTRICITY":0.00021969,"INCLINATION":87.9216,"RA_OF_ASC_NODE":348.3634,"ARG_OF_PERICENTER":96.4648,"MEAN_ANOMALY":263.6735,"EPHEMERIS_TYPE":0,"CLASSIFICATION_TYPE":"U","NORAD_CAT_ID":55810,"ELEMENT_SET_NO":999,"REV_AT_EPOCH":13013,"BSTAR":-1.2965283e-5,"MEAN_MOTION_DOT":8.0e-8,"MEAN_MOTION_DDOT":0},{"OBJECT_NAME":"ONEWEB-0648","OBJECT_ID":"2023-029R","EPOCH":"2025-11-11T02:39:55.070784","MEAN_MOTION":13.14502878,"ECCENTRICITY":0.000274,"INCLINATION":87.8988,"RA_OF_ASC_NODE":333.151,"ARG_OF_PERICENTER":104.9381,"MEAN_ANOMALY":255.2053,"EPHEMERIS_TYPE":0,"CLASSIFICATION_TYPE":"U","NORAD_CAT_ID":55811,"ELEMENT_SET_NO":999,"REV_AT_EPOCH":13074,"BSTAR":0.00032725895,"MEAN_MOTION_DOT":1.34e-6,"MEAN_MOTION_DDOT":0},{"OBJECT_NAME":"ONEWEB-0649","OBJECT_ID":"2023-029S","EPOCH":"2025-11-11T02:37:13.338624","MEAN_MOTION":13.19727521,"ECCENTRICITY":0.00022942,"INCLINATION":87.9224,"RA_OF_ASC_NODE":348.3693,"ARG_OF_PERICENTER":100.562,"MEAN_ANOMALY":259.5771,"EPHEMERIS_TYPE":0,"CLASSIFICATION_TYPE":"U","NORAD_CAT_ID":55812,"ELEMENT_SET_NO":999,"REV_AT_EPOCH":13016,"BSTAR":0.00024116871,"MEAN_MOTION_DOT":1.1e-6,"MEAN_MOTION_DDOT":0},{"OBJECT_NAME":"ONEWEB-0650","OBJECT_ID":"2023-029T","EPOCH":"2025-11-11T04:19:33.476448","MEAN_MOTION":13.19727337,"ECCENTRICITY":0.00020468,"INCLINATION":87.9218,"RA_OF_ASC_NODE":348.3629,"ARG_OF_PERICENTER":95.6642,"MEAN_ANOMALY":264.4724,"EPHEMERIS_TYPE":0,"CLASSIFICATION_TYPE":"U","NORAD_CAT_ID":55813,"ELEMENT_SET_NO":999,"REV_AT_EPOCH":13014,"BSTAR":-0.00010599467,"MEAN_MOTION_DOT":-2.9e-7,"MEAN_MOTION_DDOT":0},{"OBJECT_NAME":"ONEWEB-0652","OBJECT_ID":"2023-029U","EPOCH":"2025-11-11T07:41:19.044384","MEAN_MOTION":13.14505077,"ECCENTRICITY":0.00016896,"INCLINATION":87.899,"RA_OF_ASC_NODE":333.1303,"ARG_OF_PERICENTER":90.6251,"MEAN_ANOMALY":269.5073,"EPHEMERIS_TYPE":0,"CLASSIFICATION_TYPE":"U","NORAD_CAT_ID":55814,"ELEMENT_SET_NO":999,"REV_AT_EPOCH":13074,"BSTAR":-0.00034867056,"MEAN_MOTION_DOT":-1.16e-6,"MEAN_MOTION_DDOT":0},{"OBJECT_NAME":"ONEWEB-0653","OBJECT_ID":"2023-029V","EPOCH":"2025-11-11T01:49:40.827072","MEAN_MOTION":13.14506587,"ECCENTRICITY":0.00016982,"INCLINATION":87.8991,"RA_OF_ASC_NODE":333.1685,"ARG_OF_PERICENTER":96.3095,"MEAN_ANOMALY":263.8228,"EPHEMERIS_TYPE":0,"CLASSIFICATION_TYPE":"U","NORAD_CAT_ID":55815,"ELEMENT_SET_NO":999,"REV_AT_EPOCH":13074,"BSTAR":-0.00022371895,"MEAN_MOTION_DOT":-7.0e-7,"MEAN_MOTION_DDOT":0},{"OBJECT_NAME":"ONEWEB-0654","OBJECT_ID":"2023-029W","EPOCH":"2025-11-11T07:11:38.166720","MEAN_MOTION":13.14501456,"ECCENTRICITY":0.00014756,"INCLINATION":87.8996,"RA_OF_ASC_NODE":333.123,"ARG_OF_PERICENTER":91.1966,"MEAN_ANOMALY":268.9332,"EPHEMERIS_TYPE":0,"CLASSIFICATION_TYPE":"U","NORAD_CAT_ID":55816,"ELEMENT_SET_NO":999,"REV_AT_EPOCH":13079,"BSTAR":-0.000201719,"MEAN_MOTION_DOT":-6.2e-7,"MEAN_MOTION_DDOT":0},{"OBJECT_NAME":"ONEWEB-0656","OBJECT_ID":"2023-029X","EPOCH":"2025-11-11T06:02:36.077280","MEAN_MOTION":13.20772543,"ECCENTRICITY":0.00013842,"INCLINATION":87.9185,"RA_OF_ASC_NODE":317.8907,"ARG_OF_PERICENTER":87.1426,"MEAN_ANOMALY":272.9866,"EPHEMERIS_TYPE":0,"CLASSIFICATION_TYPE":"U","NORAD_CAT_ID":55817,"ELEMENT_SET_NO":999,"REV_AT_EPOCH":13238,"BSTAR":-8.9497871e-5,"MEAN_MOTION_DOT":-2.3e-7,"MEAN_MOTION_DDOT":0},{"OBJECT_NAME":"ONEWEB-0657","OBJECT_ID":"2023-029Y","EPOCH":"2025-11-11T04:12:45.368640","MEAN_MOTION":13.19723192,"ECCENTRICITY":0.00017656,"INCLINATION":87.9218,"RA_OF_ASC_NODE":348.3665,"ARG_OF_PERICENTER":71.6611,"MEAN_ANOMALY":288.4713,"EPHEMERIS_TYPE":0,"CLASSIFICATION_TYPE":"U","NORAD_CAT_ID":55818,"ELEMENT_SET_NO":999,"REV_AT_EPOCH":13015,"BSTAR":-9.8055614e-5,"MEAN_MOTION_DOT":-2.6e-7,"MEAN_MOTION_DDOT":0},{"OBJECT_NAME":"ONEWEB-0658","OBJECT_ID":"2023-029Z","EPOCH":"2025-11-11T04:05:54.726720","MEAN_MOTION":13.19727015,"ECCENTRICITY":0.00023625,"INCLINATION":87.9234,"RA_OF_ASC_NODE":348.3152,"ARG_OF_PERICENTER":95.0018,"MEAN_ANOMALY":265.1384,"EPHEMERIS_TYPE":0,"CLASSIFICATION_TYPE":"U","NORAD_CAT_ID":55819,"ELEMENT_SET_NO":999,"REV_AT_EPOCH":13016,"BSTAR":-0.00015016786,"MEAN_MOTION_DOT":-4.7e-7,"MEAN_MOTION_DDOT":0},{"OBJECT_NAME":"ONEWEB-0660","OBJECT_ID":"2023-029AA","EPOCH":"2025-11-11T06:39:40.001184","MEAN_MOTION":13.14539169,"ECCENTRICITY":0.00022282,"INCLINATION":87.9002,"RA_OF_ASC_NODE":333.1042,"ARG_OF_PERICENTER":89.7135,"MEAN_ANOMALY":270.425,"EPHEMERIS_TYPE":0,"CLASSIFICATION_TYPE":"U","NORAD_CAT_ID":55820,"ELEMENT_SET_NO":999,"REV_AT_EPOCH":13077,"BSTAR":-0.019844796,"MEAN_MOTION_DOT":-7.343e-5,"MEAN_MOTION_DDOT":0},{"OBJECT_NAME":"ONEWEB-0661","OBJECT_ID":"2023-029AB","EPOCH":"2025-11-11T02:01:06.020544","MEAN_MOTION":13.1450269,"ECCENTRICITY":0.00018905,"INCLINATION":87.8991,"RA_OF_ASC_NODE":333.2109,"ARG_OF_PERICENTER":104.3234,"MEAN_ANOMALY":255.8106,"EPHEMERIS_TYPE":0,"CLASSIFICATION_TYPE":"U","NORAD_CAT_ID":55821,"ELEMENT_SET_NO":999,"REV_AT_EPOCH":13073,"BSTAR":-0.00047953576,"MEAN_MOTION_DOT":-1.65e-6,"MEAN_MOTION_DDOT":0},{"OBJECT_NAME":"ONEWEB-0662","OBJECT_ID":"2023-029AC","EPOCH":"2025-11-11T02:51:21.343392","MEAN_MOTION":13.14488895,"ECCENTRICITY":0.0002287,"INCLINATION":87.9035,"RA_OF_ASC_NODE":333.2121,"ARG_OF_PERICENTER":103.9601,"MEAN_ANOMALY":256.1783,"EPHEMERIS_TYPE":0,"CLASSIFICATION_TYPE":"U","NORAD_CAT_ID":55822,"ELEMENT_SET_NO":999,"REV_AT_EPOCH":13078,"BSTAR":0.00046119869,"MEAN_MOTION_DOT":1.84e-6,"MEAN_MOTION_DDOT":0},{"OBJECT_NAME":"ONEWEB-0663","OBJECT_ID":"2023-029AD","EPOCH":"2025-11-11T07:12:43.677792","MEAN_MOTION":13.20850893,"ECCENTRICITY":0.00021836,"INCLINATION":87.9197,"RA_OF_ASC_NODE":317.9444,"ARG_OF_PERICENTER":98.8546,"MEAN_ANOMALY":261.2835,"EPHEMERIS_TYPE":0,"CLASSIFICATION_TYPE":"U","NORAD_CAT_ID":55823,"ELEMENT_SET_NO":999,"REV_AT_EPOCH":13238,"BSTAR":0.00026620388,"MEAN_MOTION_DOT":1.21e-6,"MEAN_MOTION_DDOT":0},{"OBJECT_NAME":"ONEWEB-0664","OBJECT_ID":"2023-029AE","EPOCH":"2025-11-11T05:44:25.649664","MEAN_MOTION":13.20771107,"ECCENTRICITY":0.00015867,"INCLINATION":87.9173,"RA_OF_ASC_NODE":317.9675,"ARG_OF_PERICENTER":100.544,"MEAN_ANOMALY":259.5872,"EPHEMERIS_TYPE":0,"CLASSIFICATION_TYPE":"U","NORAD_CAT_ID":55824,"ELEMENT_SET_NO":999,"REV_AT_EPOCH":13237,"BSTAR":4.7857073e-5,"MEAN_MOTION_DOT":3.2e-7,"MEAN_MOTION_DDOT":0},{"OBJECT_NAME":"ONEWEB-0665","OBJECT_ID":"2023-029AF","EPOCH":"2025-11-11T07:25:21.686592","MEAN_MOTION":13.14502486,"ECCENTRICITY":0.00020776,"INCLINATION":87.8996,"RA_OF_ASC_NODE":333.1432,"ARG_OF_PERICENTER":99.7507,"MEAN_ANOMALY":260.3857,"EPHEMERIS_TYPE":0,"CLASSIFICATION_TYPE":"U","NORAD_CAT_ID":55825,"ELEMENT_SET_NO":999,"REV_AT_EPOCH":13078,"BSTAR":-0.00042100593,"MEAN_MOTION_DOT":-1.43e-6,"MEAN_MOTION_DDOT":0},{"OBJECT_NAME":"ONEWEB-0666","OBJECT_ID":"2023-029AG","EPOCH":"2025-11-11T07:24:24.764544","MEAN_MOTION":13.20772329,"ECCENTRICITY":0.00017004,"INCLINATION":87.9179,"RA_OF_ASC_NODE":317.9421,"ARG_OF_PERICENTER":67.5523,"MEAN_ANOMALY":292.5791,"EPHEMERIS_TYPE":0,"CLASSIFICATION_TYPE":"U","NORAD_CAT_ID":55826,"ELEMENT_SET_NO":999,"REV_AT_EPOCH":13239,"BSTAR":0.00028394016,"MEAN_MOTION_DOT":1.28e-6,"MEAN_MOTION_DDOT":0},{"OBJECT_NAME":"ONEWEB-0667","OBJECT_ID":"2023-029AH","EPOCH":"2025-11-11T07:15:18.352800","MEAN_MOTION":13.20771633,"ECCENTRICITY":0.00018615,"INCLINATION":87.9185,"RA_OF_ASC_NODE":317.8737,"ARG_OF_PERICENTER":96.5109,"MEAN_ANOMALY":263.6236,"EPHEMERIS_TYPE":0,"CLASSIFICATION_TYPE":"U","NORAD_CAT_ID":55827,"ELEMENT_SET_NO":999,"REV_AT_EPOCH":13238,"BSTAR":4.1824795e-5,"MEAN_MOTION_DOT":3.0e-7,"MEAN_MOTION_DDOT":0},{"OBJECT_NAME":"ONEWEB-0669","OBJECT_ID":"2023-029AJ","EPOCH":"2025-11-11T07:08:29.779296","MEAN_MOTION":13.20773046,"ECCENTRICITY":0.00011478,"INCLINATION":87.9178,"RA_OF_ASC_NODE":317.9118,"ARG_OF_PERICENTER":92.0179,"MEAN_ANOMALY":268.1086,"EPHEMERIS_TYPE":0,"CLASSIFICATION_TYPE":"U","NORAD_CAT_ID":55828,"ELEMENT_SET_NO":999,"REV_AT_EPOCH":13238,"BSTAR":0.00016186051,"MEAN_MOTION_DOT":7.9e-7,"MEAN_MOTION_DDOT":0},{"OBJECT_NAME":"ONEWEB-0670","OBJECT_ID":"2023-029AK","EPOCH":"2025-11-11T06:53:22.200000","MEAN_MOTION":13.14504584,"ECCENTRICITY":0.00017746,"INCLINATION":87.9001,"RA_OF_ASC_NODE":333.1675,"ARG_OF_PERICENTER":105.9521,"MEAN_ANOMALY":254.1805,"EPHEMERIS_TYPE":0,"CLASSIFICATION_TYPE":"U","NORAD_CAT_ID":55829,"ELEMENT_SET_NO":999,"REV_AT_EPOCH":13080,"BSTAR":0.00029998462,"MEAN_MOTION_DOT":1.24e-6,"MEAN_MOTION_DDOT":0},{"OBJECT_NAME":"ONEWEB-0671","OBJECT_ID":"2023-029AL","EPOCH":"2025-11-11T03:59:05.104320","MEAN_MOTION":13.19727447,"ECCENTRICITY":0.00019137,"INCLINATION":87.922,"RA_OF_ASC_NODE":348.3626,"ARG_OF_PERICENTER":100.1544,"MEAN_ANOMALY":259.9804,"EPHEMERIS_TYPE":0,"CLASSIFICATION_TYPE":"U","NORAD_CAT_ID":55830,"ELEMENT_SET_NO":999,"REV_AT_EPOCH":13014,"BSTAR":-1.788366e-6,"MEAN_MOTION_DOT":1.2e-7,"MEAN_MOTION_DDOT":0},{"OBJECT_NAME":"ONEWEB-0672","OBJECT_ID":"2023-029AM","EPOCH":"2025-11-11T01:34:25.751712","MEAN_MOTION":13.20772314,"ECCENTRICITY":0.00016615,"INCLINATION":87.9174,"RA_OF_ASC_NODE":317.9386,"ARG_OF_PERICENTER":83.907,"MEAN_ANOMALY":276.2252,"EPHEMERIS_TYPE":0,"CLASSIFICATION_TYPE":"U","NORAD_CAT_ID":55831,"ELEMENT_SET_NO":999,"REV_AT_EPOCH":13235,"BSTAR":6.7030498e-5,"MEAN_MOTION_DOT":4.0e-7,"MEAN_MOTION_DDOT":0}]
